H1 CPF 01  gfz 2022 07 30 12  7112 terrasarx 
H2 0702601  6201 31698    2022 07 30 12 59 42 2022 08 04 00 00 42   120 1 1  0 0 0
H9
10 0 59791  43182.000000  0     187645.260   6635184.176   1836663.034
10 0 59791  43302.000000  0     356818.254   6328822.750   2689727.546
10 0 59791  43422.000000  0     513396.868   5908961.806   3495432.669
10 0 59791  43542.000000  0     652725.870   5383216.552   4239599.190
10 0 59791  43662.000000  0     770604.343   4761143.033   4909145.241
10 0 59791  43782.000000  0     863390.268   4054048.849   5492318.055
10 0 59791  43902.000000  0     928092.888   3274778.873   5978894.563
10 0 59791  44022.000000  0     962449.254   2437474.327   6360356.818
10 0 59791  44142.000000  0     964982.406   1557309.872   6630035.403
10 0 59791  44262.000000  0     935041.677    650214.380   6783220.120
10 0 59791  44382.000000  0     872824.085   -267418.355   6817236.126
10 0 59791  44502.000000  0     779376.293  -1179024.507   6731488.718
10 0 59791  44622.000000  0     656576.898  -2068169.265   6527473.842
10 0 59791  44742.000000  0     507099.286  -2918843.049   6208754.163
10 0 59791  44862.000000  0     334355.643  -3715751.958   5780899.708
10 0 59791  44982.000000  0     142423.732  -4444593.571   5251393.766
10 0 59791  45102.000000  0     -64041.960  -5092316.670   4629509.293
10 0 59791  45222.000000  0    -279914.123  -5647363.420   3926154.268
10 0 59791  45342.000000  0    -499710.787  -6099886.349   3153683.536
10 0 59791  45462.000000  0    -717724.186  -6441933.215   2325682.545
10 0 59791  45582.000000  0    -928156.120  -6667595.615   1456726.209
10 0 59791  45702.000000  0   -1125258.159  -6773120.266    562118.731
10 0 59791  45822.000000  0   -1303473.825  -6756976.856   -342384.994
10 0 59791  45942.000000  0   -1457576.242  -6619879.047  -1240866.211
10 0 59791  46062.000000  0   -1582798.945  -6364760.683  -2117530.921
10 0 59791  46182.000000  0   -1674957.205  -5996708.318  -2956994.569
10 0 59791  46302.000000  0   -1730556.881  -5522851.337  -3744557.524
10 0 59791  46422.000000  0   -1746887.583  -4952212.111  -4466464.480
10 0 59791  46542.000000  0   -1722097.900  -4295521.878  -5110141.815
10 0 59791  46662.000000  0   -1655251.847  -3565008.499  -5664409.959
10 0 59791  46782.000000  0   -1546365.425  -2774160.860  -6119668.860
10 0 59791  46902.000000  0   -1396422.603  -1937474.145  -6468054.065
10 0 59791  47022.000000  0   -1207370.941  -1070181.900  -6703560.702
10 0 59791  47142.000000  0    -982097.776   -187980.662  -6822136.310
10 0 59791  47262.000000  0    -724386.726    693249.342  -6821742.528
10 0 59791  47382.000000  0    -438854.617   1557722.723  -6702385.772
10 0 59791  47502.000000  0    -130871.326   2390024.183  -6466116.989
10 0 59791  47622.000000  0     193537.297   3175377.206  -6117001.828
10 0 59791  47742.000000  0     527803.927   3899904.070  -5661058.963
10 0 59791  47862.000000  0     864948.055   4550870.424  -5106165.538
10 0 59791  47982.000000  0    1197716.262   5116912.479  -4461933.107
10 0 59791  48102.000000  0    1518733.205   5588243.217  -3739551.859
10 0 59791  48222.000000  0    1820659.781   5956831.063  -2951604.778
10 0 59791  48342.000000  0    2096355.058   6216548.300  -2111854.935
10 0 59791  48462.000000  0    2339038.771   6363285.382  -1235007.407
10 0 59791  48582.000000  0    2542450.014   6395026.257   -336449.446
10 0 59791  48702.000000  0    2700997.864   6311881.725    568024.970
10 0 59791  48822.000000  0    2809899.896   6116080.147   1462499.702
10 0 59791  48942.000000  0    2865305.006   5811916.159   2331224.544
10 0 59791  49062.000000  0    2864397.704   5405658.053   3158900.715
10 0 59791  49182.000000  0    2805481.347   4905415.814   3930957.683
10 0 59791  49302.000000  0    2688037.992   4320974.153   4633815.728
10 0 59791  49422.000000  0    2512761.031   3663591.545   5255129.028
10 0 59791  49542.000000  0    2281562.156   2945773.724   5783999.325
10 0 59791  49662.000000  0    1997555.401   2181029.815   6211162.355
10 0 59791  49782.000000  0    1665015.669   1383612.993   6529146.149
10 0 59791  49902.000000  0    1289312.675    568250.276   6732395.303
10 0 59791  50022.000000  0     876822.845   -250129.984   6817360.926
10 0 59791  50142.000000  0     434820.833  -1056670.092   6782560.056
10 0 59791  50262.000000  0     -28649.035  -1836853.175   6628600.590
10 0 59791  50382.000000  0    -504919.315  -2576764.310   6358170.970
10 0 59791  50502.000000  0    -984860.899  -3263339.482   5975994.938
10 0 59791  50622.000000  0   -1459055.202  -3884596.679   5488752.453
10 0 59791  50742.000000  0   -1917977.048  -4429847.807   4904970.866
10 0 59791  50862.000000  0   -2352186.635  -4889889.316   4234883.670
10 0 59791  50982.000000  0   -2752525.504  -5257166.480   3490255.906
10 0 59791  51102.000000  0   -3110310.431  -5525905.396   2684178.054
10 0 59791  51222.000000  0   -3417520.887  -5692209.461   1830834.696
10 0 59791  51342.000000  0   -3666976.741  -5754119.871    945251.565
10 0 59791  51462.000000  0   -3852501.693  -5711637.414     43024.838
10 0 59791  51582.000000  0   -3969068.019  -5566704.918   -859961.362
10 0 59791  51702.000000  0   -4012918.694  -5323150.226  -1747824.066
10 0 59791  51822.000000  0   -3981663.389  -4986590.301  -2604969.725
10 0 59791  51942.000000  0   -3874346.035  -4564299.769  -3416374.676
10 0 59791  52062.000000  0   -3691482.317  -4065048.280  -4167851.397
10 0 59791  52182.000000  0   -3435067.370  -3498912.015  -4846295.379
10 0 59791  52302.000000  0   -3108554.225  -2877064.040  -5439909.178
10 0 59791  52422.000000  0   -2716803.922  -2211548.389  -5938399.461
10 0 59791  52542.000000  0   -2266009.187  -1515043.926  -6333145.634
10 0 59791  52662.000000  0   -1763592.396   -800621.653  -6617338.248
10 0 59791  52782.000000  0   -1218080.917    -81500.888  -6786084.367
10 0 59791  52902.000000  0    -638963.511    629190.444  -6836481.476
10 0 59791  53022.000000  0     -36528.260   1318649.229  -6767662.264
10 0 59791  53142.000000  0     578315.173   1974621.576  -6580807.639
10 0 59791  53262.000000  0    1194227.820   2585615.747  -6279131.051
10 0 59791  53382.000000  0    1799646.774   3141101.108  -5867829.232
10 0 59791  53502.000000  0    2382998.019   3631689.397  -5354001.284
10 0 59791  53622.000000  0    2932915.049   4049294.822  -4746537.052
10 0 59791  53742.000000  0    3438459.558   4387272.559  -4055975.108
10 0 59791  53862.000000  0    3889340.512   4640531.623  -3294329.951
10 0 59791  53982.000000  0    4276127.136   4805618.776  -2474890.107
10 0 59791  54102.000000  0    4590449.298   4880770.375  -1611989.537
10 0 59791  54222.000000  0    4825181.801   4865932.511   -720757.796
10 0 59791  54342.000000  0    4974607.391   4762745.798    183149.767
10 0 59791  54462.000000  0    5034551.253   4574495.459   1083833.214
10 0 59791  54582.000000  0    5002486.817   4306029.612   1965434.525
10 0 59791  54702.000000  0    4877610.295   3963645.740   2812425.937
10 0 59791  54822.000000  0    4660878.442   3554946.789   3609892.837
10 0 59791  54942.000000  0    4355009.387   3088672.418   4343802.669
10 0 59791  55062.000000  0    3964448.766   2574510.059   5001254.551
10 0 59791  55182.000000  0    3495301.428   2022890.749   5570707.777
10 0 59791  55302.000000  0    2955228.102   1444774.072   6042181.485
10 0 59791  55422.000000  0    2353314.700    851427.352   6407424.038
10 0 59791  55542.000000  0    1699914.919    254204.672   6660050.048
10 0 59791  55662.000000  0    1006469.508   -335668.956   6795646.847
10 0 59791  55782.000000  0     285304.002   -907308.387   6811848.331
10 0 59791  55902.000000  0    -450591.091  -1450369.162   6708372.877
10 0 59791  56022.000000  0   -1187794.124  -1955234.430   6487027.317
10 0 59791  56142.000000  0   -1912695.909  -2413185.114   6151675.732
10 0 59791  56262.000000  0   -2611748.411  -2816550.207   5708176.799
10 0 59791  56382.000000  0   -3271719.018  -3158838.255   5164290.207
10 0 59791  56502.000000  0   -3879946.213  -3434845.706   4529546.488
10 0 59791  56622.000000  0   -4424586.855  -3640738.498   3815083.518
10 0 59791  56742.000000  0   -4894851.741  -3774106.432   3033454.271
10 0 59791  56862.000000  0   -5281225.339  -3833989.434   2198408.101
10 0 59791  56982.000000  0   -5575664.943  -3820875.053   1324646.578
10 0 59791  57102.000000  0   -5771772.043  -3736665.083    427558.812
10 0 59791  57222.000000  0   -5864932.372  -3584612.798   -477056.955
10 0 59791  57342.000000  0   -5852420.964  -3369232.760  -1373280.669
10 0 59791  57462.000000  0   -5733468.062  -3096184.220  -2245360.844
10 0 59791  57582.000000  0   -5509284.185  -2772131.842  -3077998.348
10 0 59791  57702.000000  0   -5183046.255  -2404588.770  -3856618.921
10 0 59791  57822.000000  0   -4759844.865  -2001745.342  -4567628.844
10 0 59791  57942.000000  0   -4246595.192  -1572288.616  -5198649.398
10 0 59791  58062.000000  0   -3651913.699  -1125216.438  -5738726.438
10 0 59791  58182.000000  0   -2985964.150   -669650.333  -6178510.939
10 0 59791  58302.000000  0   -2260277.509   -214651.829  -6510409.475
10 0 59791  58422.000000  0   -1487548.562    230954.086  -6728703.791
10 0 59791  58542.000000  0    -681414.108    658745.025  -6829637.967
10 0 59791  58662.000000  0     143783.155   1060856.037  -6811475.864
10 0 59791  58782.000000  0     973242.898   1430119.908  -6674527.429
10 0 59791  58902.000000  0    1791966.292   1760191.701  -6421146.686
10 0 59791  59022.000000  0    2585022.077   2045656.876  -6055695.568
10 0 59791  59142.000000  0    3337814.974   2282119.664  -5584476.225
10 0 59791  59262.000000  0    4036351.218   2466270.882  -5015632.290
10 0 59791  59382.000000  0    4667500.154   2595935.051  -4359020.504
10 0 59791  59502.000000  0    5219246.267   2670095.001  -3626050.049
10 0 59791  59622.000000  0    5680924.449   2688893.020  -2829492.574
99
